[
    {
        "Altitude(m)": 622205.856098795,
        "Argument of Periapsis(deg)": 0.0,
        "Eccentricity": 0.0,
        "Inclination(deg)": 60.0,
        "Latitude(deg)": -52.16240397345317,
        "Longitude(deg)": 22.700540541258455,
        "Mean Anomaly(deg)": -114.54549999999998,
        "RAAN(deg)": 255.0,
        "Satellite Name": "Test1 1137",
        "Satellite Number": 1137,
        "Semi-Major Axis(m)": 6980739.136638005,
        "Time(s)": 0
    },
    {
        "Altitude(m)": 622344.7621168401,
        "Argument of Periapsis(deg)": 0.00010418945913296404,
        "Eccentricity": 0.0,
        "Inclination(deg)": 60.0,
        "Latitude(deg)": -52.51998201897473,
        "Longitude(deg)": 23.48175423379752,
        "Mean Anomaly(deg)": -113.9253938545381,
        "RAAN(deg)": 254.99957995086027,
        "Satellite Name": "Test1 1137",
        "Satellite Number": 1137,
        "Semi-Major Axis(m)": 6980739.136638005,
        "Time(s)": 10
    }
]